CSS (TIANHE)            
1 48274U 21035A   24235.48038275  .00053956  00000+0  61179-3 0  9993
2 48274  41.4690  39.1238 0002995 285.7109  74.3399 15.61505945189468
